GEOSCAN-3 (RS92S3)
1 64893U 25155T   26201.93974985  .00013987  00000-0  39514-3 0  9996
2 64893  97.4558 172.2409 0008332  72.4436 287.7718 15.36436824 86036
INNOSAT3 (RS92S0)
1 64894U 25155U   26201.92592750  .00032286  00000-0  65865-3 0  9993
2 64894  97.4502 174.2930 0007877  77.6603 282.5528 15.46112929 86178
KNACKSAT-2
1 67683U 98067XZ  26201.50289186  .00036378  00000-0  39993-3 0  9993
2 67683  51.6270 126.5287 0007981 346.1806  13.8969 15.62776530 25484
