OBJECT_NAME,OBJECT_ID,EPOCH,MEAN_MOTION,ECCENTRICITY,INCLINATION,RA_OF_ASC_NODE,ARG_OF_PERICENTER,MEAN_ANOMALY,EPHEMERIS_TYPE,CLASSIFICATION_TYPE,NORAD_CAT_ID,ELEMENT_SET_NO,REV_AT_EPOCH,BSTAR,MEAN_MOTION_DOT,MEAN_MOTION_DDOT
GEOSCAN 3 (RS92S3),2025-155T,2026-07-20T22:33:14.387040,15.36436824,.00083315,97.4558,172.2409,72.4436,287.7718,0,U,64893,999,8603,.39513517E-3,.13987E-3,0
INNOSAT 3 (RS92S0),2025-155U,2026-07-20T22:13:20.136000,15.46112929,.00078769,97.4502,174.2930,77.6603,282.5528,0,U,64894,999,8617,.65864985E-3,.32286E-3,0
KNACKSAT-2,1998-067XZ,2026-07-20T12:04:09.856704,15.62776530,.00079811,51.6270,126.5287,346.1806,13.8969,0,U,67683,999,2548,.39992737E-3,.36378E-3,0
